
STARLINK-6358           
1 57377U 23099BB  24338.95813510  .00001044  00000+0  92329-4 0  9991
2 57377  43.0017 219.1623 0001367 268.4029  91.6657 15.02537522 77705
STARLINK-6364           
1 57378U 23099BC  24338.31385012  .00000543  00000+0  55296-4 0  9998
2 57378  43.0031 196.9156 0001150 271.9126  88.1585 15.02535545 77908
STARLINK-6361           
1 57379U 23099BD  24339.35365041  .00002943  00000+0  23270-3 0  9996
2 57379  43.0043 216.9686 0001646 265.7203  94.3451 15.02560016 77766
STARLINK-6366           
1 57380U 23099BE  24339.30990412  .00002680  00000+0  21341-3 0  9994
2 57380  43.0024 191.4856 0001707 267.3090  92.7556 15.02531238 78047
STARLINK-6371           
1 57381U 23099BF  24338.37008113  .00000597  00000+0  59270-4 0  9997
2 57381  43.0035 209.4758 0001059 275.8356  84.2365 15.02534179 77769
STARLING 4              
1 57386U 23100A   24338.65290631  .00004180  00000+0  32633-3 0  9999
2 57386  99.4922 218.2390 0008119 114.1279 246.0790 15.01870275 75629
STARLING 2              
1 57387U 23100B   24339.38611691  .00004357  00000+0  33997-3 0  9994
2 57387  99.4918 219.1511 0007438 114.8925 245.3068 15.01858603 75731
STARLING 1              
1 57388U 23100C   24339.38515562  .00004595  00000+0  35822-3 0  9998
2 57388  99.4953 219.4668 0005128 273.8603  86.2029 15.01864268 75733
STARLING 3              
1 57389U 23100D   24339.38669965  .00004374  00000+0  34135-3 0  9997
2 57389  99.4919 219.1403 0007906 114.4108 245.7936 15.01851078 75730
LEMUR-2-MANO            
1 57390U 23100E   24338.64188516  .00034693  00000+0  19020-2 0  9997
2 57390  99.4666 222.1265 0012236  97.3750 262.8866 15.14044510 75837
LEMUR-2-DEVERILL-M-T    
1 57391U 23100F   24338.62770722  .00027389  00000+0  16561-2 0  9993
2 57391  99.4468 220.5271 0012583  99.4170 260.8477 15.10574667 75801
LEO 3                   
1 57392U 23100G   24338.81870159  .00000070  00000+0  13370-3 0  9994
2 57392  99.5002  99.3000 0018436  21.5523 338.6395 13.68346650 69008
TIANMU-1 07             
1 57399U 23101A   24339.45631575  .00011898  00000+0  53633-3 0  9996
2 57399  97.3401  32.0414 0003579 330.3358  29.7674 15.21177415 76273
TIANMU-1 08             
1 57400U 23101B   24339.42426306  .00012339  00000+0  55545-3 0  9995
2 57400  97.3392  31.8621 0005891 329.7815  30.3081 15.21205532 76262
TIANMU-1 09             
1 57401U 23101C   24339.40798865  .00012327  00000+0  55562-3 0  9992
2 57401  97.3346  31.5862 0005553 327.4331  32.6561 15.21164619 76267
TIANMU-1 10             
1 57402U 23101D   24339.44110722  .00013042  00000+0  58718-3 0  9998
2 57402  97.3426  32.0714 0007659 321.5924  38.4766 15.21176613 76269
STARLINK-30240          
1 57404U 23102A   24339.39779413 -.00001946  00000+0 -12897-3 0  9993
2 57404  43.0038 230.2225 0001196 265.6392  94.4314 15.02555581 76999
STARLINK-30192          
1 57405U 23102B   24339.39446483  .00000881  00000+0  80244-4 0  9999
2 57405  43.0015 230.1828 0001100 263.5823  96.4894 15.02542632 76992
STARLINK-30195          
1 57406U 23102C   24337.99510378 -.00003006  00000+0 -20750-3 0  9998
2 57406  42.9963 237.7519 0001391 275.4504  84.6179 15.02549088 76787
STARLINK-30207          
1 57407U 23102D   24339.35811083  .00000860  00000+0  78718-4 0  9999
2 57407  43.0018 217.0062 0001107 269.1499  90.9216 15.02540743 77145
STARLINK-30205          
1 57408U 23102E   24339.11523999  .00001054  00000+0  93084-4 0  9999
2 57408  43.0027 231.5437 0001125 265.5112  94.5601 15.02539677 76955
STARLINK-30222          
1 57409U 23102F   24339.10524993  .00001122  00000+0  98076-4 0  9996
2 57409  43.0019 231.4685 0001162 275.3595  84.7115 15.02541193 76953
STARLINK-30172          
1 57410U 23102G   24338.97895410  .00000874  00000+0  79758-4 0  9996
2 57410  43.0041 232.2262 0001139 280.9000  79.1714 15.02536447 76934
STARLINK-30214          
1 57411U 23102H   24338.41716532  .00000980  00000+0  87633-4 0  9992
2 57411  43.0039 234.9103 0001171 272.4935  87.5773 15.02539001 76807
STARLINK-30182          
1 57412U 23102J   24338.70971321  .00000625  00000+0  61359-4 0  9997
2 57412  43.0039 233.6582 0001384 262.8875  97.1810 15.02537652 76895
STARLINK-30191          
1 57413U 23102K   24339.43095580 -.00008933  00000+0 -64696-3 0  9991
2 57413  43.0045 229.6045 0001099 255.6008 104.4713 15.02541932 77007
STARLINK-30193          
1 57414U 23102L   24339.43428593  .00005312  00000+0  40768-3 0  9996
2 57414  43.0007 229.6319 0001456 273.3748  86.6928 15.02565696 77007
STARLINK-30208          
1 57415U 23102M   24338.43048047  .00001226  00000+0  10579-3 0  9995
2 57415  42.9995 235.0045 0001076 272.4508  87.6212 15.02537745 76809
STARLINK-30224          
1 57416U 23102N   24339.42431886  .00000119  00000+0  23882-4 0  9995
2 57416  43.0015 229.5604 0001241 275.1713  84.8987 15.02538083 77003
STARLINK-30043          
1 57417U 23102P   24339.41766251 -.00004242  00000+0 -29896-3 0  9995
2 57417  43.0079 229.5034 0001384 276.8458  83.2227 15.02559146 77006
STARLINK-30221          
1 57418U 23102Q   24339.08860248  .00001378  00000+0  11702-3 0  9992
2 57418  43.0016 231.3425 0001232 273.3171  86.7531 15.02538656 76951
2023-103B               
1 57422U 23103B   24339.29120043  .00000568  00000+0  29952-5 0  9991
2 57422  96.5484  41.1164 0008889 104.9010 255.3248 15.84867698 78403
2023-104A               
1 57424U 23104A   24339.47122388  .00012181  00000+0  38390-3 0  9996
2 57424  97.3374  45.5406 0009371 314.6524  45.3954 15.32997927 76418
2023-104B               
1 57425U 23104B   24339.45777007  .00030214  00000+0  79173-3 0  9990
2 57425  97.3352  46.3894 0009959 310.7587  49.2793 15.38589431 76476
2023-104C               
1 57426U 23104C   24339.43910702  .00035761  00000+0  13067-2 0  9991
2 57426  97.3356  44.9409 0008564 256.7277 103.3007 15.27975100 76383
STARLINK-30189          
1 57430U 23105A   24339.12165675  .00001806  00000+0  14870-3 0  9991
2 57430  42.9998 244.7306 0000952 268.0011  92.0722 15.02540985 76231
STARLINK-30170          
1 57431U 23105B   24339.45071146  .00001834  00000+0  15078-3 0  9999
2 57431  43.0019 242.8983 0001083 261.8707  98.2012 15.02548577 76333
STARLINK-30188          
1 57432U 23105C   24339.44736453 -.00004978  00000+0 -35331-3 0  9996
2 57432  43.0068 242.8698 0002520 274.8043  85.2512 15.02568873 76292
STARLINK-30105          
1 57433U 23105D   24339.40188901  .00001823  00000+0  50904-4 0  9990
2 57433  42.9966 122.1305 0002240 283.4447  76.6160 15.40701126 77809
STARLINK-30102          
1 57434U 23105E   24339.04186545  .00001853  00000+0  15219-3 0  9995
2 57434  43.0018 244.9882 0000705 282.3229  77.7534 15.02534933 76256
STARLINK-30180          
1 57435U 23105F   24339.17813983  .00009653  00000+0  72818-3 0  9997
2 57435  43.0012 244.2915 0001671 262.5524  97.5128 15.02562023 76386
STARLINK-30183          
1 57436U 23105G   24339.08935215  .00031228  00000+0  22605-2 0  9992
2 57436  42.9987 244.4832 0001346 246.0924 113.9778 15.03458428 76283
STARLINK-30237          
1 57437U 23105H   24339.43073578  .00000716  00000+0  68051-4 0  9992
2 57437  43.0045 242.7451 0001432 271.8992  88.1686 15.02544567 76567
STARLINK-30158          
1 57438U 23105J   24339.43406132  .00004968  00000+0  38245-3 0  9993
2 57438  43.0048 242.7705 0001546 269.4197  90.6468 15.02551988 76335
STARLINK-30173          
1 57439U 23105K   24339.38775046  .00000526  00000+0  54026-4 0  9993
2 57439  43.0005 229.7065 0001227 284.9641  75.1065 15.02536008 76488
STARLINK-30159          
1 57440U 23105L   24339.09502227  .00000639  00000+0  62343-4 0  9998
2 57440  43.0005 244.5265 0001052 289.4007  70.6722 15.02538492 76130
STARLINK-30160          
1 57441U 23105M   24339.42408161  .00000117  00000+0  23716-4 0  9990
2 57441  43.0011 242.6953 0000864 272.6831  87.3912 15.02534792 76168
STARLINK-30146          
1 57442U 23105N   24339.08836920  .00003023  00000+0  23883-3 0  9994
2 57442  43.0031 244.4755 0001077 247.8015 112.2713 15.02523684 76341
STARLINK-30197          
1 57443U 23105P   24338.48673111  .00001632  00000+0  13581-3 0  9997
2 57443  42.9982 247.7020 0000632 273.7313  86.3457 15.02535426 76186
STARLINK-30181          
1 57444U 23105Q   24339.47057636  .00001140  00000+0  99432-4 0  9990
2 57444  43.0025 242.1819 0001196 269.0872  90.9833 15.02539775 76401
STARLINK-30215          
1 57445U 23105R   24338.47784945  .00001850  00000+0  15194-3 0  9990
2 57445  43.0049 247.6386 0000855 276.3920  83.6825 15.02540251 76022
STARLINK-30162          
1 57446U 23105S   24339.40106187 -.00002239  00000+0 -15069-3 0  9996
2 57446  43.0044 229.7867 0001098 259.8918 100.1801 15.02550489 76489
STARLINK-30178          
1 57447U 23105T   24339.07504449  .00006086  00000+0  46544-3 0  9997
2 57447  43.0035 244.3785 0001131 277.3070  82.7644 15.02515858 76283
STARLINK-30196          
1 57448U 23105U   24338.99857574 -.00001443  00000+0 -91752-4 0  9994
2 57448  43.0049 244.6608 0001364 275.2023  84.8664 15.02546695 76108
STARLINK-30225          
1 57449U 23105V   24339.46058614  .00002078  00000+0  16885-3 0  9992
2 57449  43.0056 242.1091 0000902 274.6190  85.4550 15.02543654 76430
STARLINK-30217          
1 57450U 23105W   24339.11850800 -.00002822  00000+0 -19383-3 0  9998
2 57450  43.0003 231.1583 0001405 268.7041  91.3640 15.02549861 76449
STARLINK-30216          
1 57451U 23105X   24339.12487387  .00001109  00000+0  97113-4 0  9999
2 57451  43.0027 243.9070 0001367 281.7905  78.2784 15.02539309 76145
YAOGAN-36 05A           
1 57452U 23106A   24339.26969076  .00038561  00000+0  15900-2 0  9990
2 57452  35.0040 338.7891 0002182 162.5235 197.5555 15.23081132 75738
